[{"OBJECT_NAME":"STARLINK-33924","OBJECT_ID":"2025-112D","EPOCH":"2026-03-09T16:27:06.898464","MEAN_MOTION":15.0565016,"ECCENTRICITY":4.835e-5,"INCLINATION":97.6041,"RA_OF_ASC_NODE":121.4493,"ARG_OF_PERICENTER":90.2285,"MEAN_ANOMALY":269.8997,"EPHEMERIS_TYPE":0,"CLASSIFICATION_TYPE":"U","NORAD_CAT_ID":64149,"ELEMENT_SET_NO":999,"REV_AT_EPOCH":4330,"BSTAR":0.00025469218,"MEAN_MOTION_DOT":3.616e-5,"MEAN_MOTION_DDOT":0},{"OBJECT_NAME":"COSMOS 2251 DEB","OBJECT_ID":"1993-036BFE","EPOCH":"2026-03-07T11:17:48.105024","MEAN_MOTION":15.02528382,"ECCENTRICITY":0.00920663,"INCLINATION":74.0305,"RA_OF_ASC_NODE":348.6467,"ARG_OF_PERICENTER":45.7,"MEAN_ANOMALY":315.169,"EPHEMERIS_TYPE":0,"CLASSIFICATION_TYPE":"U","NORAD_CAT_ID":37084,"ELEMENT_SET_NO":999,"REV_AT_EPOCH":67539,"BSTAR":0.00092223433,"MEAN_MOTION_DOT":0.00013425,"MEAN_MOTION_DDOT":0}]
